STARLINK-4437           
1 53506U 22099AT  22241.66667824 -.01291900  00000+0 -14269-1 0  9993
2 53506  97.6558   0.4697 0001916  62.5901  26.4249 15.65860772  2889
STARLINK-4444           
1 53507U 22099AU  22241.66667824 -.01232325  00000+0 -13552-1 0  9994
2 53507  97.6557   0.4700 0001797  60.3144  30.6445 15.65836052  2885
STARLINK-4443           
1 53508U 22099AV  22241.66667824 -.01229055  00000+0 -13521-1 0  9997
2 53508  97.6559   0.4698 0001844  55.4971  34.1831 15.65819136  2882
STARLINK-4402           
1 53509U 22099AW  22241.66667824 -.01226562  00000+0 -13476-1 0  9997
2 53509  97.6558   0.4701 0001847  55.6202  36.6208 15.65845952  2889
STARLINK-4441           
1 53510U 22099AX  22241.66667824 -.01228715  00000+0 -13505-1 0  9994
2 53510  97.6558   0.4697 0001910  58.5712  33.0292 15.65840284  2881
FALCON 9 DEB            
1 53511U 22099AY  22241.39618611  .00128949  83004-5  44371-3 0  9998
2 53511  97.6792   0.5575 0009816 220.9676 139.0859 15.89569153  2622
FALCON 9 DEB            
1 53512U 22099AZ  22241.39154573  .00140876  94968-5  47096-3 0  9992
2 53512  97.6770   0.5586 0007383 217.5752 142.5005 15.90170422  2626
FALCON 9 DEB            
1 53513U 22099BA  22241.56805260  .00187433  15246-4  57993-3 0  9996
2 53513  97.6733   0.7811 0010481 200.9773 159.1071 15.91616686  2659
FALCON 9 DEB            
1 53514U 22099BB  22241.56510430  .00181370  14452-4  55490-3 0  9991
2 53514  97.6717   0.7820 0009768 185.2922 174.8249 15.91850773  2657
2022-100A               
1 53522U 22100A   22241.41702499  .00005861  00000+0  24591-3 0  9992
2 53522  35.0009 146.8483 0007815 344.4141  15.6339 15.22802582  1487
2022-100B               
1 53523U 22100B   22241.34862676  .00009645  00000+0  39544-3 0  9997
2 53523  35.0016 147.2367 0008381 347.4307  12.6199 15.23473865  1477
2022-100C               
1 53524U 22100C   22241.24253146  .00006942  00000+0  29070-3 0  9993
2 53524  35.0013 147.9019 0005955 342.1977 156.9686 15.22840110  1401
2022-100D               
1 53525U 22100D   22241.41209924  .00008205  00000+0  33343-3 0  9990
2 53525  35.0029 146.8111 0008551 356.2917   3.7748 15.23799574  1434
2022-100E               
1 53526U 22100E   22241.41559627  .00003778  00000+0  15953-3 0  9996
2 53526  35.0029 146.8399 0005799 351.9933   8.0683 15.22727669  1435
STARLINK-4511           
1 53527U 22101A   22241.58334491 -.01196304  00000+0 -82878-2 0  9996
2 53527  53.2176 106.2989 0003241   4.2877 161.1514 15.76555957  1309
STARLINK-4503           
1 53528U 22101B   22241.58334491 -.01198762  00000+0 -83115-2 0  9992
2 53528  53.2176 106.3010 0003285 353.4003 171.5076 15.76543204  1304
STARLINK-4478           
1 53529U 22101C   22241.58334491 -.01197644  00000+0 -82923-2 0  9997
2 53529  53.2176 106.2981 0003187 359.8646 166.0963 15.76572754  1301
